[{"OBJECT_NAME":"ONEWEB-0596","OBJECT_ID":"2022-166W","EPOCH":"2025-11-06T07:17:50.264736","MEAN_MOTION":13.21827719,"ECCENTRICITY":0.00018845,"INCLINATION":87.9171,"RA_OF_ASC_NODE":288.4519,"ARG_OF_PERICENTER":82.9716,"MEAN_ANOMALY":277.1632,"EPHEMERIS_TYPE":0,"CLASSIFICATION_TYPE":"U","NORAD_CAT_ID":54662,"ELEMENT_SET_NO":999,"REV_AT_EPOCH":14209,"BSTAR":0.00024977235,"MEAN_MOTION_DOT":1.16e-6,"MEAN_MOTION_DDOT":0},{"OBJECT_NAME":"ONEWEB-0597","OBJECT_ID":"2022-166X","EPOCH":"2025-11-06T05:02:46.755168","MEAN_MOTION":13.21826755,"ECCENTRICITY":0.00017457,"INCLINATION":87.9171,"RA_OF_ASC_NODE":288.475,"ARG_OF_PERICENTER":86.9089,"MEAN_ANOMALY":273.2245,"EPHEMERIS_TYPE":0,"CLASSIFICATION_TYPE":"U","NORAD_CAT_ID":54663,"ELEMENT_SET_NO":999,"REV_AT_EPOCH":14208,"BSTAR":-9.381477e-5,"MEAN_MOTION_DOT":-2.6e-7,"MEAN_MOTION_DDOT":0},{"OBJECT_NAME":"ONEWEB-0600","OBJECT_ID":"2022-166Y","EPOCH":"2025-11-05T21:20:41.928288","MEAN_MOTION":13.21826971,"ECCENTRICITY":0.00017767,"INCLINATION":87.9174,"RA_OF_ASC_NODE":288.5299,"ARG_OF_PERICENTER":89.6794,"MEAN_ANOMALY":270.4543,"EPHEMERIS_TYPE":0,"CLASSIFICATION_TYPE":"U","NORAD_CAT_ID":54664,"ELEMENT_SET_NO":999,"REV_AT_EPOCH":14201,"BSTAR":0.00022638409,"MEAN_MOTION_DOT":1.07e-6,"MEAN_MOTION_DDOT":0},{"OBJECT_NAME":"ONEWEB-0601","OBJECT_ID":"2022-166Z","EPOCH":"2025-11-06T04:24:51.611616","MEAN_MOTION":13.21826984,"ECCENTRICITY":0.00015683,"INCLINATION":87.9174,"RA_OF_ASC_NODE":288.489,"ARG_OF_PERICENTER":86.5368,"MEAN_ANOMALY":273.5945,"EPHEMERIS_TYPE":0,"CLASSIFICATION_TYPE":"U","NORAD_CAT_ID":54665,"ELEMENT_SET_NO":999,"REV_AT_EPOCH":14224,"BSTAR":1.4106559e-5,"MEAN_MOTION_DOT":1.9e-7,"MEAN_MOTION_DDOT":0},{"OBJECT_NAME":"ONEWEB-0602","OBJECT_ID":"2022-166AA","EPOCH":"2025-11-06T07:11:53.664288","MEAN_MOTION":13.21825777,"ECCENTRICITY":0.00018652,"INCLINATION":87.9173,"RA_OF_ASC_NODE":288.4693,"ARG_OF_PERICENTER":98.1721,"MEAN_ANOMALY":261.9624,"EPHEMERIS_TYPE":0,"CLASSIFICATION_TYPE":"U","NORAD_CAT_ID":54666,"ELEMENT_SET_NO":999,"REV_AT_EPOCH":14210,"BSTAR":0.00054295666,"MEAN_MOTION_DOT":2.37e-6,"MEAN_MOTION_DDOT":0},{"OBJECT_NAME":"ONEWEB-0603","OBJECT_ID":"2022-166AB","EPOCH":"2025-11-06T05:31:11.320032","MEAN_MOTION":13.21832256,"ECCENTRICITY":0.00019632,"INCLINATION":87.9178,"RA_OF_ASC_NODE":288.4196,"ARG_OF_PERICENTER":87.7306,"MEAN_ANOMALY":272.4053,"EPHEMERIS_TYPE":0,"CLASSIFICATION_TYPE":"U","NORAD_CAT_ID":54667,"ELEMENT_SET_NO":999,"REV_AT_EPOCH":14202,"BSTAR":-0.0023735061,"MEAN_MOTION_DOT":-9.67e-6,"MEAN_MOTION_DDOT":0},{"OBJECT_NAME":"ONEWEB-0604","OBJECT_ID":"2022-166AC","EPOCH":"2025-11-06T05:14:35.731104","MEAN_MOTION":13.21824378,"ECCENTRICITY":0.00017491,"INCLINATION":87.9172,"RA_OF_ASC_NODE":288.4448,"ARG_OF_PERICENTER":91.8162,"MEAN_ANOMALY":268.3173,"EPHEMERIS_TYPE":0,"CLASSIFICATION_TYPE":"U","NORAD_CAT_ID":54668,"ELEMENT_SET_NO":999,"REV_AT_EPOCH":14198,"BSTAR":0.00031052336,"MEAN_MOTION_DOT":1.41e-6,"MEAN_MOTION_DDOT":0},{"OBJECT_NAME":"ONEWEB-0605","OBJECT_ID":"2022-166AD","EPOCH":"2025-11-05T23:38:08.006496","MEAN_MOTION":13.21825613,"ECCENTRICITY":0.00013299,"INCLINATION":87.9171,"RA_OF_ASC_NODE":288.5203,"ARG_OF_PERICENTER":71.919,"MEAN_ANOMALY":288.2089,"EPHEMERIS_TYPE":0,"CLASSIFICATION_TYPE":"U","NORAD_CAT_ID":54669,"ELEMENT_SET_NO":999,"REV_AT_EPOCH":14202,"BSTAR":-0.00020339905,"MEAN_MOTION_DOT":-7.1e-7,"MEAN_MOTION_DDOT":0},{"OBJECT_NAME":"ONEWEB-0606","OBJECT_ID":"2022-166AE","EPOCH":"2025-11-06T05:35:55.958784","MEAN_MOTION":13.21828031,"ECCENTRICITY":0.00020822,"INCLINATION":87.9172,"RA_OF_ASC_NODE":288.481,"ARG_OF_PERICENTER":84.2832,"MEAN_ANOMALY":275.8539,"EPHEMERIS_TYPE":0,"CLASSIFICATION_TYPE":"U","NORAD_CAT_ID":54670,"ELEMENT_SET_NO":999,"REV_AT_EPOCH":14211,"BSTAR":6.0085117e-5,"MEAN_MOTION_DOT":3.8e-7,"MEAN_MOTION_DDOT":0},{"OBJECT_NAME":"ONEWEB-0607","OBJECT_ID":"2022-166AF","EPOCH":"2025-11-05T23:21:32.800320","MEAN_MOTION":13.21826772,"ECCENTRICITY":0.00017797,"INCLINATION":87.9175,"RA_OF_ASC_NODE":288.4969,"ARG_OF_PERICENTER":88.5632,"MEAN_ANOMALY":271.5706,"EPHEMERIS_TYPE":0,"CLASSIFICATION_TYPE":"U","NORAD_CAT_ID":54671,"ELEMENT_SET_NO":999,"REV_AT_EPOCH":14205,"BSTAR":-1.8085943e-5,"MEAN_MOTION_DOT":6.0e-8,"MEAN_MOTION_DDOT":0},{"OBJECT_NAME":"ONEWEB-0608","OBJECT_ID":"2022-166AG","EPOCH":"2025-11-06T04:58:02.447328","MEAN_MOTION":13.21827731,"ECCENTRICITY":0.00013258,"INCLINATION":87.9177,"RA_OF_ASC_NODE":288.4351,"ARG_OF_PERICENTER":84.5523,"MEAN_ANOMALY":275.5762,"EPHEMERIS_TYPE":0,"CLASSIFICATION_TYPE":"U","NORAD_CAT_ID":54672,"ELEMENT_SET_NO":999,"REV_AT_EPOCH":14209,"BSTAR":8.837031e-5,"MEAN_MOTION_DOT":5.0e-7,"MEAN_MOTION_DDOT":0},{"OBJECT_NAME":"ONEWEB-0610","OBJECT_ID":"2022-166AH","EPOCH":"2025-11-06T04:29:35.274912","MEAN_MOTION":13.21825758,"ECCENTRICITY":0.00012219,"INCLINATION":87.9171,"RA_OF_ASC_NODE":288.4751,"ARG_OF_PERICENTER":86.0588,"MEAN_ANOMALY":274.0686,"EPHEMERIS_TYPE":0,"CLASSIFICATION_TYPE":"U","NORAD_CAT_ID":54673,"ELEMENT_SET_NO":999,"REV_AT_EPOCH":14199,"BSTAR":1.2072158e-5,"MEAN_MOTION_DOT":1.8e-7,"MEAN_MOTION_DDOT":0},{"OBJECT_NAME":"ONEWEB-0611","OBJECT_ID":"2022-166AJ","EPOCH":"2025-11-06T04:20:05.892000","MEAN_MOTION":13.2182498,"ECCENTRICITY":0.00020875,"INCLINATION":87.9172,"RA_OF_ASC_NODE":288.4719,"ARG_OF_PERICENTER":87.4479,"MEAN_ANOMALY":272.6894,"EPHEMERIS_TYPE":0,"CLASSIFICATION_TYPE":"U","NORAD_CAT_ID":54674,"ELEMENT_SET_NO":999,"REV_AT_EPOCH":14198,"BSTAR":-6.2976183e-5,"MEAN_MOTION_DOT":-1.3e-7,"MEAN_MOTION_DDOT":0},{"OBJECT_NAME":"ONEWEB-0612","OBJECT_ID":"2022-166AK","EPOCH":"2025-11-05T15:56:03.100128","MEAN_MOTION":13.21826295,"ECCENTRICITY":0.00016894,"INCLINATION":87.9173,"RA_OF_ASC_NODE":288.5541,"ARG_OF_PERICENTER":87.133,"MEAN_ANOMALY":272.9997,"EPHEMERIS_TYPE":0,"CLASSIFICATION_TYPE":"U","NORAD_CAT_ID":54675,"ELEMENT_SET_NO":999,"REV_AT_EPOCH":14190,"BSTAR":0.00014885268,"MEAN_MOTION_DOT":7.4e-7,"MEAN_MOTION_DDOT":0},{"OBJECT_NAME":"ONEWEB-0615","OBJECT_ID":"2022-166AL","EPOCH":"2025-11-06T00:32:36.248064","MEAN_MOTION":13.2182582,"ECCENTRICITY":0.00018413,"INCLINATION":87.9172,"RA_OF_ASC_NODE":288.5088,"ARG_OF_PERICENTER":86.4589,"MEAN_ANOMALY":273.6756,"EPHEMERIS_TYPE":0,"CLASSIFICATION_TYPE":"U","NORAD_CAT_ID":54676,"ELEMENT_SET_NO":999,"REV_AT_EPOCH":14196,"BSTAR":-0.00059299475,"MEAN_MOTION_DOT":-2.32e-6,"MEAN_MOTION_DDOT":0},{"OBJECT_NAME":"ONEWEB-0655","OBJECT_ID":"2022-166AM","EPOCH":"2025-11-05T16:41:03.984864","MEAN_MOTION":13.21828119,"ECCENTRICITY":0.00017709,"INCLINATION":87.9168,"RA_OF_ASC_NODE":288.5795,"ARG_OF_PERICENTER":95.238,"MEAN_ANOMALY":264.8956,"EPHEMERIS_TYPE":0,"CLASSIFICATION_TYPE":"U","NORAD_CAT_ID":54677,"ELEMENT_SET_NO":999,"REV_AT_EPOCH":14191,"BSTAR":-0.00022997336,"MEAN_MOTION_DOT":-8.2e-7,"MEAN_MOTION_DDOT":0}]
