ONEWEB-0596             
1 54662U 22166W   25310.30405399  .00000116  00000+0  24977-3 0  9993
2 54662  87.9171 288.4519 0001884  82.9716 277.1632 13.21827719142094
ONEWEB-0597             
1 54663U 22166X   25310.21026337 -.00000026  00000+0 -93815-4 0  9995
2 54663  87.9171 288.4750 0001745  86.9089 273.2245 13.21826755142080
ONEWEB-0600             
1 54664U 22166Y   25309.88937417  .00000107  00000+0  22638-3 0  9999
2 54664  87.9174 288.5299 0001776  89.6794 270.4543 13.21826971142013
ONEWEB-0601             
1 54665U 22166Z   25310.18393069  .00000019  00000+0  14107-4 0  9999
2 54665  87.9174 288.4890 0001568  86.5368 273.5945 13.21826984142241
ONEWEB-0602             
1 54666U 22166AA  25310.29992667  .00000237  00000+0  54296-3 0  9995
2 54666  87.9173 288.4693 0001865  98.1721 261.9624 13.21825777142103
ONEWEB-0603             
1 54667U 22166AB  25310.22999213 -.00000967  00000+0 -23735-2 0  9998
2 54667  87.9178 288.4196 0001963  87.7306 272.4053 13.21832256142023
ONEWEB-0604             
1 54668U 22166AC  25310.21846911  .00000141  00000+0  31052-3 0  9998
2 54668  87.9172 288.4448 0001749  91.8162 268.3173 13.21824378141983
ONEWEB-0605             
1 54669U 22166AD  25309.98481489 -.00000071  00000+0 -20340-3 0  9998
2 54669  87.9171 288.5203 0001329  71.9190 288.2089 13.21825613142023
ONEWEB-0606             
1 54670U 22166AE  25310.23328656  .00000038  00000+0  60085-4 0  9998
2 54670  87.9172 288.4810 0002082  84.2832 275.8539 13.21828031142115
ONEWEB-0607             
1 54671U 22166AF  25309.97329630  .00000006  00000+0 -18086-4 0  9991
2 54671  87.9175 288.4969 0001779  88.5632 271.5706 13.21826772142053
ONEWEB-0608             
1 54672U 22166AG  25310.20697277  .00000050  00000+0  88370-4 0  9996
2 54672  87.9177 288.4351 0001325  84.5523 275.5762 13.21827731142099
ONEWEB-0610             
1 54673U 22166AH  25310.18721383  .00000018  00000+0  12072-4 0  9990
2 54673  87.9171 288.4751 0001221  86.0588 274.0686 13.21825758141995
ONEWEB-0611             
1 54674U 22166AJ  25310.18062375 -.00000013  00000+0 -62976-4 0  9995
2 54674  87.9172 288.4719 0002087  87.4479 272.6894 13.21824980141986
ONEWEB-0612             
1 54675U 22166AK  25309.66392477  .00000074  00000+0  14885-3 0  9996
2 54675  87.9173 288.5541 0001689  87.1330 272.9997 13.21826295141902
ONEWEB-0615             
1 54676U 22166AL  25310.02264176 -.00000232  00000+0 -59299-3 0  9999
2 54676  87.9172 288.5088 0001841  86.4589 273.6756 13.21825820141966
ONEWEB-0655             
1 54677U 22166AM  25309.69518501 -.00000082  00000+0 -22997-3 0  9993
2 54677  87.9168 288.5795 0001770  95.2380 264.8956 13.21828119141918
